{
  "type": "FeatureCollection",
  "features": [
    {
      "type": "Feature",
      "properties": {
        "norad_id": 66626,
        "name": "STARLINK-35902",
        "group": "last-30-days",
        "lat": 27.18998136292122,
        "lon": -154.10048804375825,
        "alt_km": 415.13014689939064,
        "timestamp": "2025-12-13T13:34:33.864754+00:00",
        "meta_object_name": "STARLINK-35902",
        "meta_object_id": "2025-271K",
        "meta_epoch": "2025-12-12T20:00:01.999872",
        "meta_mean_motion": 15.49226326,
        "meta_eccentricity": 7.523e-05,
        "meta_inclination": 53.1596,
        "meta_ra_of_asc_node": 186.7492,
        "meta_arg_of_pericenter": 75.4,
        "meta_mean_anomaly": 192.7864,
        "meta_ephemeris_type": 0,
        "meta_classification_type": "U",
        "meta_norad_cat_id": 66626,
        "meta_element_set_no": 999,
        "meta_rev_at_epoch": 425,
        "meta_bstar": 0.0012488226,
        "meta_mean_motion_dot": 0.00069422,
        "meta_mean_motion_ddot": 0,
        "tle_line1": "1 66626U 25271K   25346.83335648  .00069422  00000+0  12488-2 0  9990",
        "tle_line2": "2 66626  53.1596 186.7492 0000752  75.4000 192.7864 15.49226326  4252"
      },
      "geometry": {
        "type": "Point",
        "coordinates": [
          -154.10048804375825,
          27.18998136292122
        ]
      }
    },
    {
      "type": "Feature",
      "properties": {
        "norad_id": 66627,
        "name": "STARLINK-35904",
        "group": "last-30-days",
        "lat": 28.60856078619733,
        "lon": -152.62068180771976,
        "alt_km": 414.9000320079631,
        "timestamp": "2025-12-13T13:34:33.864765+00:00",
        "meta_object_name": "STARLINK-35904",
        "meta_object_id": "2025-271L",
        "meta_epoch": "2025-12-12T20:00:01.999872",
        "meta_mean_motion": 15.49230515,
        "meta_eccentricity": 7.696e-05,
        "meta_inclination": 53.1595,
        "meta_ra_of_asc_node": 186.7451,
        "meta_arg_of_pericenter": 80.6503,
        "meta_mean_anomaly": 189.4551,
        "meta_ephemeris_type": 0,
        "meta_classification_type": "U",
        "meta_norad_cat_id": 66627,
        "meta_element_set_no": 999,
        "meta_rev_at_epoch": 409,
        "meta_bstar": 0.001250501,
        "meta_mean_motion_dot": 0.00069528,
        "meta_mean_motion_ddot": 0,
        "tle_line1": "1 66627U 25271L   25346.83335648  .00069528  00000+0  12505-2 0  9998",
        "tle_line2": "2 66627  53.1595 186.7451 0000769  80.6503 189.4551 15.49230515  4094"
      },
      "geometry": {
        "type": "Point",
        "coordinates": [
          -152.62068180771976,
          28.60856078619733
        ]
      }
    },
    {
      "type": "Feature",
      "properties": {
        "norad_id": 66628,
        "name": "STARLINK-35862",
        "group": "last-30-days",
        "lat": 30.00075102397228,
        "lon": -151.11120552316922,
        "alt_km": 414.5663894240979,
        "timestamp": "2025-12-13T13:34:33.864774+00:00",
        "meta_object_name": "STARLINK-35862",
        "meta_object_id": "2025-271M",
        "meta_epoch": "2025-12-12T20:00:01.999872",
        "meta_mean_motion": 15.49229575,
        "meta_eccentricity": 8.688e-05,
        "meta_inclination": 53.1595,
        "meta_ra_of_asc_node": 186.7412,
        "meta_arg_of_pericenter": 73.1996,
        "meta_mean_anomaly": 198.8233,
        "meta_ephemeris_type": 0,
        "meta_classification_type": "U",
        "meta_norad_cat_id": 66628,
        "meta_element_set_no": 999,
        "meta_rev_at_epoch": 425,
        "meta_bstar": 0.0012567389,
        "meta_mean_motion_dot": 0.00069878,
        "meta_mean_motion_ddot": 0,
        "tle_line1": "1 66628U 25271M   25346.83335648  .00069878  00000+0  12567-2 0  9995",
        "tle_line2": "2 66628  53.1595 186.7412 0000868  73.1996 198.8233 15.49229575  4258"
      },
      "geometry": {
        "type": "Point",
        "coordinates": [
          -151.11120552316922,
          30.00075102397228
        ]
      }
    },
    {
      "type": "Feature",
      "properties": {
        "norad_id": 66629,
        "name": "STARLINK-35956",
        "group": "last-30-days",
        "lat": 31.369421113023805,
        "lon": -149.56524495776844,
        "alt_km": 414.3603335016369,
        "timestamp": "2025-12-13T13:34:33.864782+00:00",
        "meta_object_name": "STARLINK-35956",
        "meta_object_id": "2025-271N",
        "meta_epoch": "2025-12-12T20:00:01.999872",
        "meta_mean_motion": 15.49227898,
        "meta_eccentricity": 8.411e-05,
        "meta_inclination": 53.1595,
        "meta_ra_of_asc_node": 186.7376,
        "meta_arg_of_pericenter": 73.5806,
        "meta_mean_anomaly": 200.3564,
        "meta_ephemeris_type": 0,
        "meta_classification_type": "U",
        "meta_norad_cat_id": 66629,
        "meta_element_set_no": 999,
        "meta_rev_at_epoch": 425,
        "meta_bstar": 0.0012375013,
        "meta_mean_motion_dot": 0.00068787,
        "meta_mean_motion_ddot": 0,
        "tle_line1": "1 66629U 25271N   25346.83335648  .00068787  00000+0  12375-2 0  9991",
        "tle_line2": "2 66629  53.1595 186.7376 0000841  73.5806 200.3564 15.49227898  4255"
      },
      "geometry": {
        "type": "Point",
        "coordinates": [
          -149.56524495776844,
          31.369421113023805
        ]
      }
    },
    {
      "type": "Feature",
      "properties": {
        "norad_id": 66630,
        "name": "STARLINK-35949",
        "group": "last-30-days",
        "lat": 32.70594199702481,
        "lon": -147.99159644929878,
        "alt_km": 414.39325498044127,
        "timestamp": "2025-12-13T13:34:33.864791+00:00",
        "meta_object_name": "STARLINK-35949",
        "meta_object_id": "2025-271P",
        "meta_epoch": "2025-12-12T20:00:01.999872",
        "meta_mean_motion": 15.49297866,
        "meta_eccentricity": 0.00012569,
        "meta_inclination": 53.1598,
        "meta_ra_of_asc_node": 186.7322,
        "meta_arg_of_pericenter": 98.9024,
        "meta_mean_anomaly": 176.9415,
        "meta_ephemeris_type": 0,
        "meta_classification_type": "U",
        "meta_norad_cat_id": 66630,
        "meta_element_set_no": 999,
        "meta_rev_at_epoch": 425,
        "meta_bstar": -0.00058312883,
        "meta_mean_motion_dot": -0.00032731,
        "meta_mean_motion_ddot": 0,
        "tle_line1": "1 66630U 25271P   25346.83335648 -.00032731  00000+0 -58313-3 0  9998",
        "tle_line2": "2 66630  53.1598 186.7322 0001256  98.9024 176.9415 15.49297866  4250"
      },
      "geometry": {
        "type": "Point",
        "coordinates": [
          -147.99159644929878,
          32.70594199702481
        ]
      }
    },
    {
      "type": "Feature",
      "properties": {
        "norad_id": 66631,
        "name": "STARLINK-35965",
        "group": "last-30-days",
        "lat": 34.02144791971746,
        "lon": -146.36797443147162,
        "alt_km": 414.05881223741835,
        "timestamp": "2025-12-13T13:34:33.864800+00:00",
        "meta_object_name": "STARLINK-35965",
        "meta_object_id": "2025-271Q",
        "meta_epoch": "2025-12-12T20:00:01.999872",
        "meta_mean_motion": 15.49205043,
        "meta_eccentricity": 6.575e-05,
        "meta_inclination": 53.1596,
        "meta_ra_of_asc_node": 186.7293,
        "meta_arg_of_pericenter": 67.3448,
        "meta_mean_anomaly": 210.4258,
        "meta_ephemeris_type": 0,
        "meta_classification_type": "U",
        "meta_norad_cat_id": 66631,
        "meta_element_set_no": 999,
        "meta_rev_at_epoch": 425,
        "meta_bstar": 0.0012594724,
        "meta_mean_motion_dot": 0.00069971,
        "meta_mean_motion_ddot": 0,
        "tle_line1": "1 66631U 25271Q   25346.83335648  .00069971  00000+0  12595-2 0  9994",
        "tle_line2": "2 66631  53.1596 186.7293 0000657  67.3448 210.4258 15.49205043  4255"
      },
      "geometry": {
        "type": "Point",
        "coordinates": [
          -146.36797443147162,
          34.02144791971746
        ]
      }
    },
    {
      "type": "Feature",
      "properties": {
        "norad_id": 66632,
        "name": "STARLINK-35973",
        "group": "last-30-days",
        "lat": 35.3202183940066,
        "lon": -144.68793548244545,
        "alt_km": 413.7995347146025,
        "timestamp": "2025-12-13T13:34:33.864811+00:00",
        "meta_object_name": "STARLINK-35973",
        "meta_object_id": "2025-271R",
        "meta_epoch": "2025-12-12T20:00:01.999872",
        "meta_mean_motion": 15.4919898,
        "meta_eccentricity": 8.366e-05,
        "meta_inclination": 53.1595,
        "meta_ra_of_asc_node": 186.7251,
        "meta_arg_of_pericenter": 76.5026,
        "meta_mean_anomaly": 203.1855,
        "meta_ephemeris_type": 0,
        "meta_classification_type": "U",
        "meta_norad_cat_id": 66632,
        "meta_element_set_no": 999,
        "meta_rev_at_epoch": 420,
        "meta_bstar": 0.0012297529,
        "meta_mean_motion_dot": 0.0006828,
        "meta_mean_motion_ddot": 0,
        "tle_line1": "1 66632U 25271R   25346.83335648  .00068280  00000+0  12298-2 0  9997",
        "tle_line2": "2 66632  53.1595 186.7251 0000836  76.5026 203.1855 15.49198980  4200"
      },
      "geometry": {
        "type": "Point",
        "coordinates": [
          -144.68793548244545,
          35.3202183940066
        ]
      }
    }
  ]
}